{
    "type": "FeatureCollection",
    "features": [
        {
            "type": "Feature",
            "properties": {},
            "geometry": {
                "type": "Polygon",
                "coordinates": [
                    [
                        [
                            177.667433,
                            -17.526859
                        ],
                        [
                            177.663977,
                            -17.542362
                        ],
                        [
                            177.685126,
                            -17.546648
                        ],
                        [
                            177.688582,
                            -17.531146
                        ],
                        [
                            177.667433,
                            -17.526859
                        ]
                    ]
                ]
            },
            "bbox": [
                177.663977,
                -17.546648,
                177.688582,
                -17.526859
            ]
        }
    ]
}