{
    "type": "FeatureCollection",
    "features": [
        {
            "type": "Feature",
            "properties": {},
            "geometry": {
                "type": "Polygon",
                "coordinates": [
                    [
                        [
                            177.638774,
                            -17.520706
                        ],
                        [
                            177.638902,
                            -17.558662
                        ],
                        [
                            177.709182,
                            -17.559132
                        ],
                        [
                            177.709208,
                            -17.520789
                        ],
                        [
                            177.638774,
                            -17.520706
                        ]
                    ]
                ]
            },
            "bbox": [
                177.638774,
                -17.559132,
                177.709208,
                -17.520706
            ]
        }
    ]
}